ONEWEB-0365             
1 49291U 21090N   26154.46386131  .00000057  00000+0  10923-3 0  9996
2 49291  87.9168 307.7008 0001719  94.1665 265.9665 13.19727098224611
ONEWEB-0366             
1 49292U 21090P   26153.82127082  .00000116  00000+0  27890-3 0  9991
2 49292  87.8947 292.5705 0001927  99.6077 260.5271 13.14501275225672
ONEWEB-0367             
1 49293U 21090Q   26154.29965065 -.00001439  00000+0 -35719-2 0  9994
2 49293  87.9212 277.1985 0002657 169.5711 190.5477 13.20772266227995
ONEWEB-0368             
1 49294U 21090R   26154.27355568  .00003914  00000+0  95872-2 0  9998
2 49294  87.9195 277.2232 0002242  79.3549 280.7836 13.20785570229141
ONEWEB-0369             
1 49295U 21090S   26154.45912605  .00000040  00000+0  66739-4 0  9999
2 49295  87.9157 307.7104 0001766  93.1305 267.0030 13.19726484224608
ONEWEB-0370             
1 49296U 21090T   26154.30891748  .00000040  00000+0  66775-4 0  9998
2 49296  87.9191 277.2059 0001986 109.7151 250.4197 13.20773853228039
ONEWEB-0371             
1 49297U 21090U   26154.46701471  .00000042  00000+0  72277-4 0  9995
2 49297  87.9165 307.7000 0001749  98.3258 261.8073 13.19727326224648
ONEWEB-0372             
1 49298U 21090V   26154.29867931 -.00000003  00000+0 -39168-4 0  9992
2 49298  87.9205 277.2086 0001891 104.2796 255.8548 13.20770812228005
ONEWEB-0373             
1 49299U 21090W   26154.32407561  .00000024  00000+0  27254-4 0  9990
2 49299  87.9181 277.2051 0002023 103.8941 256.2417 13.20769992229194
ONEWEB-0374             
1 49300U 21090X   26154.34141191 -.00000070  00000+0 -22225-3 0  9994
2 49300  87.8959 292.4572 0002419  90.1889 269.9518 13.14503472225746
ONEWEB-0375             
1 49301U 21090Y   26154.31230059  .00000048  00000+0  87130-4 0  9994
2 49301  87.9190 277.1986 0002417  93.6208 266.5202 13.20771552228698
ONEWEB-0376             
1 49302U 21090Z   26154.46543622  .00000048  00000+0  86892-4 0  9998
2 49302  87.9169 307.6998 0001646  93.4587 266.6734 13.19724178224640
ONEWEB-0377             
1 49303U 21090AA  26154.29897540  .00000113  00000+0  24500-3 0  9991
2 49303  87.9192 277.2029 0002113 101.7081 258.4290 13.20771803228689
ONEWEB-0378             
1 49304U 21090AB  26154.31916068 -.00000609  00000+0 -15296-2 0  9995
2 49304  87.9177 277.2053 0001856 108.7633 251.3701 13.20767903227957
ONEWEB-0379             
1 49305U 21090AC  26154.33664616 -.00000100  00000+0 -30363-3 0  9996
2 49305  87.8955 292.4687 0001910  95.6194 264.5154 13.14502468225749
ONEWEB-0380             
1 49306U 21090AD  26154.46228714  .00000038  00000+0  62449-4 0  9995
2 49306  87.9158 307.7068 0002042  97.7613 262.3751 13.19724989224618
ONEWEB-0381             
1 49307U 21090AE  26154.29546894  .00000175  00000+0  39764-3 0  9994
2 49307  87.9193 277.2084 0002150  94.1801 265.9578 13.20773083227998
ONEWEB-0382             
1 49308U 21090AF  26154.28197370  .00000067  00000+0  13197-3 0  9997
2 49308  87.9185 277.2061 0002126  93.3571 266.7805 13.20772218227983
ONEWEB-0383             
1 49309U 21090AG  26154.33029588  .00000088  00000+0  20395-3 0  9990
2 49309  87.8966 292.4612 0001684  98.8966 261.2354 13.14503945225773
ONEWEB-0384             
1 49310U 21090AH  26154.87709407 -.00000029  00000+0 -10210-3 0  9998
2 49310  87.9188 277.1314 0002200  88.8912 271.2473 13.20811480228078
ONEWEB-0385             
1 49311U 21090AJ  26154.27526876  .00000062  00000+0  11960-3 0  9998
2 49311  87.9177 277.2141 0002137  92.3410 267.7968 13.20771805227960
ONEWEB-0386             
1 49312U 21090AK  26154.29209821  .00000220  00000+0  50852-3 0  9998
2 49312  87.9201 277.1982 0002013  96.4790 263.6573 13.20773245227989
ONEWEB-0387             
1 49313U 21090AL  26154.27695217  .00000063  00000+0  12283-3 0  9996
2 49313  87.9176 277.2270 0002305 102.5909 257.5483 13.20772837227985
ONEWEB-0388             
1 49314U 21090AM  26154.45755061  .00000030  00000+0  41995-4 0  9998
2 49314  87.9157 307.7060 0001933  92.0081 268.1273 13.19726263224602
ONEWEB-0389             
1 50469U 21132A   26154.60613369  .00000062  00000+0  12660-3 0  9990
2 50469  87.9142   8.5701 0002201  88.6248 271.5136 13.17647842216297
ONEWEB-0390             
1 50470U 21132B   26154.60782064  .00000045  00000+0  83823-4 0  9992
2 50470  87.9144   8.5707 0001854  99.1691 260.9650 13.17647623216299
ONEWEB-0391             
1 50471U 21132C   26154.60950885  .00000055  00000+0  10819-3 0  9996
2 50471  87.9144   8.5796 0002642  97.0251 263.1181 13.17648087216292
ONEWEB-0392             
1 50472U 21132D   26154.63989559  .00000031  00000+0  45960-4 0  9990
2 50472  87.9145   8.5400 0003005 101.9170 258.2299 13.17650080216331
ONEWEB-0393             
1 50473U 21132E   26154.61542804 -.00000013  00000+0 -67215-4 0  9996
2 50473  87.9144   8.5643 0002003  88.3156 271.8205 13.17649075216328
ONEWEB-0394             
1 50474U 21132F   26154.51620152  .00000036  00000+0  59765-4 0  9993
2 50474  87.9165 338.1623 0002062  88.1912 271.9456 13.18688565219796
